[
    {
        "Altitude(m)": 611965.1672625953,
        "Argument of Periapsis(deg)": 0.0,
        "Eccentricity": 0.0,
        "Inclination(deg)": 60.0,
        "Latitude(deg)": 59.14010671865967,
        "Longitude(deg)": -76.03021916955,
        "Mean Anomaly(deg)": -278.1818,
        "RAAN(deg)": 310.0,
        "Satellite Name": "Test1 1369",
        "Satellite Number": 1369,
        "Semi-Major Axis(m)": 6980739.136638005,
        "Time(s)": 0
    },
    {
        "Altitude(m)": 611995.7929644692,
        "Argument of Periapsis(deg)": 0.00010418945913296404,
        "Eccentricity": 0.0,
        "Inclination(deg)": 60.0,
        "Latitude(deg)": 59.283207156085446,
        "Longitude(deg)": -74.8968590143843,
        "Mean Anomaly(deg)": -277.5616938545382,
        "RAAN(deg)": 309.99957995086027,
        "Satellite Name": "Test1 1369",
        "Satellite Number": 1369,
        "Semi-Major Axis(m)": 6980739.136638005,
        "Time(s)": 10
    }
]